NORAD_CAT_ID,OBJECT_NAME,OBJECT_TYPE,EPOCH,MEAN_MOTION,ECCENTRICITY,INCLINATION,RA_OF_ASC_NODE,ARG_OF_PERICENTER,MEAN_ANOMALY,BSTAR,MEAN_MOTION_DOT,MEAN_MOTION_DDOT,TLE_LINE0,TLE_LINE1,TLE_LINE2,SEMIMAJOR_AXIS,PERIOD,APOGEE,PERIGEE,DECAYED
53718.0,STARLINK-4695,PAYLOAD,2022-11-22 22:00:00,15.08831638,0.0001877,53.2157,253.2007,50.8808,208.4119,-0.0013552,-0.00021787,0.0,0 STARLINK-4695,1 53718U 22107U   22326.91667824 -.00021787  00000-0 -13552-2 0  9999,2 53718  53.2157 253.2007 0001877  50.8808 208.4119 15.08831638  1302,6917.906,95.438,541.069,538.472,0.0
53718.0,STARLINK-4695,PAYLOAD,2022-11-23 14:00:01,15.08817779,0.0001912,53.2161,250.2075,50.2313,232.2171,0.0017952,0.00028381,0.0,0 STARLINK-4695,1 53718U 22107U   22327.58334491  .00028381  00000-0  17952-2 0  9997,2 53718  53.2161 250.2075 0001912  50.2313 232.2171 15.08817779  1307,6917.948,95.439,541.136,538.491,0.0
53718.0,STARLINK-4695,PAYLOAD,2022-11-23 16:00:00,15.08807475,0.0001884,53.2159,249.8332,51.9587,323.3886,0.0036045,0.00057495,0.0,0 STARLINK-4695,1 53718U 22107U   22327.66667824  .00057495  00000-0  36045-2 0  9997,2 53718  53.2159 249.8332 0001884  51.9587 323.3886 15.08807475 12492,6917.98,95.44,541.148,538.5409999999998,0.0
53718.0,STARLINK-4695,PAYLOAD,2022-11-23 22:00:00,15.08854099,0.0001991,53.2161,248.7117,51.8063,242.2173,-0.00093857,-0.00015201,0.0,0 STARLINK-4695,1 53718U 22107U   22327.91667824 -.00015201  00000-0 -93857-3 0  9991,2 53718  53.2161 248.7117 0001991  51.8063 242.2173 15.08854099  1301,6917.837,95.437,541.08,538.325,0.0
53718.0,STARLINK-4695,PAYLOAD,2022-11-24 08:00:01,15.08866717,0.0002074,53.2159,246.8421,46.2314,352.2932,-0.002211,-0.00035331,0.0,0 STARLINK-4695,1 53718U 22107U   22328.33334491 -.00035331  00000-0 -22110-2 0  9998,2 53718  53.2159 246.8421 0002074  46.2314 352.2932 15.08866717 12593,6917.799,95.436,541.0980000000002,538.229,0.0
53718.0,STARLINK-4695,PAYLOAD,2022-11-24 14:00:01,15.08821289,0.0001905,53.2162,245.7185,50.6515,266.5943,0.0015367,0.00024241,0.0,0 STARLINK-4695,1 53718U 22107U   22328.58334491  .00024241  00000-0  15367-2 0  9997,2 53718  53.2162 245.7185 0001905  50.6515 266.5943 15.08821289  1307,6917.938,95.439,541.12,538.485,0.0
53718.0,STARLINK-4695,PAYLOAD,2022-11-24 22:00:00,15.08853612,0.0001972,53.2163,244.2229,50.7745,278.0479,-0.0010953,-0.00017684,0.0,0 STARLINK-4695,1 53718U 22107U   22328.91667824 -.00017684  00000-0 -10953-2 0  9994,2 53718  53.2163 244.2229 0001972  50.7745 278.0479 15.08853612  1308,6917.839,95.437,541.068,538.34,0.0
53718.0,STARLINK-4695,PAYLOAD,2022-11-25 08:00:01,15.08867548,0.0002036,53.2158,242.3531,45.9121,27.4082,-0.0026821,-0.00042754,0.0,0 STARLINK-4695,1 53718U 22107U   22329.33334491 -.00042754  00000-0 -26821-2 0  9999,2 53718  53.2158 242.3531 0002036  45.9121  27.4082 15.08867548 12742,6917.795999999999,95.436,541.07,538.253,0.0
53718.0,STARLINK-4695,PAYLOAD,2022-11-25 14:00:01,15.08817109,0.0001839,53.2159,241.2295,50.7234,301.32,0.0022361,0.00035457,0.0,0 STARLINK-4695,1 53718U 22107U   22329.58334491  .00035457  00000-0  22361-2 0  9991,2 53718  53.2159 241.2295 0001839  50.7234 301.3200 15.08817109  1301,6917.95,95.439,541.0880000000002,538.543,0.0
53718.0,STARLINK-4695,PAYLOAD,2022-11-25 22:00:00,15.08857977,0.0001911,53.216,239.7341,49.9726,313.6498,-0.0010417,-0.00016837,0.0,0 STARLINK-4695,1 53718U 22107U   22329.91667824 -.00016837  00000-0 -10417-2 0  9999,2 53718  53.2160 239.7341 0001911  49.9726 313.6498 15.08857977 12836,6917.825,95.436,541.012,538.368,0.0
53718.0,STARLINK-4695,PAYLOAD,2022-11-26 14:00:01,15.08827062,0.0001778,53.2153,236.7405,51.1581,335.7030000000001,0.0017835999999999,0.00028202,0.0,0 STARLINK-4695,1 53718U 22107U   22330.58334491  .00028202  00000-0  17836-2 0  9994,2 53718  53.2153 236.7405 0001778  51.1581 335.7030 15.08827062  1300,6917.92,95.438,541.015,538.555,0.0
53718.0,STARLINK-4695,PAYLOAD,2022-11-26 22:00:00,15.08845993,0.0001933,53.2152,235.2452,51.3165,347.135,-0.0021794,-0.00034812,0.0,0 STARLINK-4695,1 53718U 22107U   22330.91667824 -.00034812  00000-0 -21794-2 0  9994,2 53718  53.2152 235.2452 0001933  51.3165 347.1350 15.08845993  1303,6917.861999999999,95.437,541.064,538.39,0.0
53718.0,STARLINK-4695,PAYLOAD,2022-11-27 14:00:01,15.08788786,0.0001795,53.2155,232.2514,52.792,8.8418,0.0032639,0.00051967,0.0,0 STARLINK-4695,1 53718U 22107U   22331.58334491  .00051967  00000-0  32639-2 0  9997,2 53718  53.2155 232.2514 0001795  52.7920   8.8418 15.08788786  1304,6918.0369999999975,95.441,541.144,538.66,0.0
53718.0,STARLINK-4695,PAYLOAD,2022-11-27 22:00:00,15.08834454,0.0001935,53.2163,230.7563,51.7848,21.4012,-0.0014283,-0.00022945,0.0,0 STARLINK-4695,1 53718U 22107U   22331.91667824 -.00022945  00000-0 -14283-2 0  9994,2 53718  53.2163 230.7563 0001935  51.7848  21.4012 15.08834454  1309,6917.897,95.438,541.101,538.424,0.0
53718.0,STARLINK-4695,PAYLOAD,2022-11-28 08:00:01,15.08847069,0.0001979,53.2157,228.8858,49.9015,127.7558,-0.0010036,-0.00016228,0.0,0 STARLINK-4695,1 53718U 22107U   22332.33334491 -.00016228  00000-0 -10036-2 0  9991,2 53718  53.2157 228.8858 0001979  49.9015 127.7558 15.08847069 13191,6917.859,95.437,541.0930000000002,538.355,0.0
53718.0,STARLINK-4695,PAYLOAD,2022-11-28 22:00:01,15.08866197,0.0002002,53.2157,226.2672,52.6475,55.3663,-0.0021502,-0.00034371,0.0,0 STARLINK-4695,1 53718U 22107U   22332.91668981 -.00034371  00000-0 -21502-2 0  9998,2 53718  53.2157 226.2672 0002002  52.6475  55.3663 15.08866197 13282,6917.8,95.436,541.05,538.28,0.0
53718.0,STARLINK-4695,PAYLOAD,2022-11-29 14:00:01,15.08803464,0.0001802,53.2156,223.2729,51.8264,79.4068,0.0017971,0.000284,0.0,0 STARLINK-4695,1 53718U 22107U   22333.58335648  .00028400  00000-0  17971-2 0  9992,2 53718  53.2156 223.2729 0001802  51.8264  79.4068 15.08803464  1309,6917.9919999999975,95.44,541.104,538.61,0.0
53718.0,STARLINK-4695,PAYLOAD,2022-11-29 22:00:00,15.08830244,0.0001955,53.2157,221.778,49.74800000000001,92.9856,-0.0010212,-0.000165,0.0,0 STARLINK-4695,1 53718U 22107U   22333.91667824 -.00016500  00000-0 -10212-2 0  9994,2 53718  53.2157 221.7780 0001955  49.7480  92.9856 15.08830244 13433,6917.91,95.438,541.128,538.423,0.0
53718.0,STARLINK-4695,PAYLOAD,2022-11-30 14:00:01,15.0881837,0.0001872,53.2161,218.7845,53.0183,112.9451,0.0029594,0.00047098,0.0,0 STARLINK-4695,1 53718U 22107U   22334.58335648  .00047098  00000-0  29594-2 0  9991,2 53718  53.2161 218.7845 0001872  53.0183 112.9451 15.08818370 13533,6917.946999999999,95.439,541.107,538.516,0.0
53718.0,STARLINK-4695,PAYLOAD,2022-11-30 22:00:00,15.08875282,0.0001984,53.2167,217.2923,53.036,124.4492,-0.0046745,-0.00073992,0.0,0 STARLINK-4695,1 53718U 22107U   22334.91667824 -.00073992  00000-0 -46745-2 0  9993,2 53718  53.2167 217.2923 0001984  53.0360 124.4492 15.08875282  1301,6917.773,95.435,541.01,538.265,0.0
53718.0,STARLINK-4695,PAYLOAD,2022-12-01 06:00:00,15.0883355,0.0002039,53.2164,215.7933,46.4422,142.6472,-0.00045244,-7.48e-05,0.0,0 STARLINK-4695,1 53718U 22107U   22335.25001157 -.00007480  00000-0 -45244-3 0  9995,2 53718  53.2164 215.7933 0002039  46.4422 142.6472 15.08833550 13630,6917.9,95.438,541.1759999999998,538.355,0.0
53718.0,STARLINK-4695,PAYLOAD,2022-12-01 14:00:01,15.08822554,0.0001898,53.2167,214.2945,52.2268,148.4655,0.0029742,0.00047342,0.0,0 STARLINK-4695,1 53718U 22107U   22335.58334491  .00047342  00000-0  29742-2 0  9994,2 53718  53.2167 214.2945 0001898  52.2268 148.4655 15.08822554  1305,6917.934,95.439,541.112,538.486,0.0
53718.0,STARLINK-4695,PAYLOAD,2022-12-01 22:00:00,15.08834691,0.0002145,53.2169,212.7998,48.01600000000001,164.2343,-0.00037688,-6.281e-05,0.0,0 STARLINK-4695,1 53718U 22107U   22335.91667824 -.00006281  00000-0 -37688-3 0  9998,2 53718  53.2169 212.7998 0002145  48.0160 164.2343 15.08834691  1303,6917.897,95.438,541.246,538.278,0.0
53718.0,STARLINK-4695,PAYLOAD,2022-12-02 14:00:01,15.08844287,0.0001986,53.2172,209.8073,51.9008,183.5314,-6.2007e-05,-1.275e-05,0.0,0 STARLINK-4695,1 53718U 22107U   22336.58334491 -.00001275  00000-0 -62007-4 0  9995,2 53718  53.2172 209.8073 0001986  51.9008 183.5314 15.08844287 13839,6917.8669999999975,95.437,541.106,538.3580000000002,0.0
53718.0,STARLINK-4695,PAYLOAD,2022-12-02 22:00:00,15.08831111,0.0002104,53.2172,208.3108,47.2176,199.8176,-0.00094185,-0.00015243,0.0,0 STARLINK-4695,1 53718U 22107U   22336.91667824 -.00015243  00000-0 -94185-3 0  9992,2 53718  53.2172 208.3108 0002104  47.2176 199.8176 15.08831111  1306,6917.908,95.438,541.2280000000002,538.317,0.0
53718.0,STARLINK-4695,PAYLOAD,2022-12-03 14:00:01,15.08819702,0.0001953,53.2172,205.3166,52.5584,217.6421,0.0024766,0.00039326,0.0,0 STARLINK-4695,1 53718U 22107U   22337.58334491  .00039326  00000-0  24766-2 0  9990,2 53718  53.2172 205.3166 0001953  52.5584 217.6421 15.08819702 13981,6917.941999999999,95.439,541.159,538.456,0.0
53718.0,STARLINK-4695,PAYLOAD,2022-12-03 22:00:00,15.08842181,0.0002133,53.2171,203.8221,48.9351,232.8553,-0.00032305,-5.426e-05,0.0,0 STARLINK-4695,1 53718U 22107U   22337.91667824 -.00005426  00000-0 -32305-3 0  9991,2 53718  53.2171 203.8221 0002133  48.9351 232.8553 15.08842181  1302,6917.874,95.437,541.214,538.263,0.0
53718.0,STARLINK-4695,PAYLOAD,2022-12-04 06:00:00,15.08838975,0.0002145,53.2168,202.3279,48.8504,244.5282,-0.0009475,-0.00015336,0.0,0 STARLINK-4695,1 53718U 22107U   22338.25001157 -.00015336  00000-0 -94750-3 0  9993,2 53718  53.2168 202.3279 0002145  48.8504 244.5282 15.08838975 14081,6917.884,95.438,541.232,538.265,0.0
53718.0,STARLINK-4695,PAYLOAD,2022-12-04 14:00:01,15.088204500000002,0.0002045,53.2168,200.8279,56.6368,248.3318,0.0023835,0.00037829,0.0,0 STARLINK-4695,1 53718U 22107U   22338.58334491  .00037829  00000-0  23835-2 0  9993,2 53718  53.2168 200.8279 0002045  56.6368 248.3318 15.08820450  1300,6917.94,95.439,541.22,538.39,0.0
